[Satellite]
VERSION=1.1
NAME=STARLINK-5290
NICKNAME=STARLINK-5290
TLE1=1 54157U 22141A   22321.58334491 -.01196809  00000+0 -12098-1 0  9995
TLE2=2 54157  53.2177  42.3179 0001296  58.5182  31.6879 15.67302659  1304
STATUS=0
